OPTICUBE 04             
1 41851U 16067D   19182.84993510 -.00000520  00000-0 -40131-4 0  9991
2 41851  97.9171 280.6204 0008683 350.3274   9.7779 14.96809249143881
AEROCUBE 8D             
1 41852U 16067E   19182.85350006 -.00000358  00000-0 -25987-4 0  9991
2 41852  97.9180 280.4491 0009369 349.2999  10.8021 14.96718201143869
AEROCUBE 8C             
1 41853U 16067F   19182.80988969  .00000399  00000-0  40256-4 0  9991
2 41853  97.9177 280.3397 0009435 351.1915   8.9139 14.96680789143850
PROMETHEUS 2-1          
1 41854U 16067G   19182.84218639 -.00000162  00000-0 -88207-5 0  9995
2 41854  97.9192 280.5128 0010012 351.0801   9.0241 14.96905012143864
PROMETHEUS 2-3          
1 41855U 16067H   19182.17602634 -.00000203  00000-0 -12328-4 0  9990
2 41855  97.9193 279.8547 0010270 353.5134   6.5953 14.96909335143767
INS-1B                  
1 41954U 17008G   19182.82490463  .00000862  00000-0  38535-4 0  9990
2 41954  97.3992 247.6949 0010979  98.5729 261.6752 15.23960347131803
BGUSAT                  
1 41999U 17008BD  19182.72482461  .00001421  00000-0  57820-4 0  9997
2 41999  97.4068 250.0179 0009920 110.2452 249.9854 15.26135034131283
DIDO-2                  
1 42000U 17008BE  19182.81442217  .00000572  00000-0  26600-4 0  9994
2 42000  97.4005 248.2321 0010119 114.1653 246.0643 15.23907632131208
PEASSS                  
1 42015U 17008BV  19182.83551830  .00000711  00000-0  31445-4 0  9992
2 42015  97.4013 249.2289 0007944 117.3016 242.9032 15.24871630131753
AL-FARABI 1             
1 42016U 17008BW  19182.69773262  .00000990  00000-0  41902-4 0  9990
2 42016  97.4029 249.6477 0007843 116.7601 243.4440 15.25508004131881
NAYIF-1 (EO-88)         
1 42017U 17008BX  19182.16021942  .00000874  00000-0  37304-4 0  9996
2 42017  97.4026 249.1259 0007764 118.4852 241.7169 15.25539602131822
ALTAIR PATHFINDER       
1 42711U 98067LS  19182.74212566  .00030075  00000-0  15118-3 0  9993
2 42711  51.6325 222.0528 0000071 108.0515 252.0495 15.81431097121154
NJUST-1                 
1 42722U 98067MB  19182.31002750  .00219863  33305-4  29430-3 0  9994
2 42722  51.6270 200.5603 0006292  24.0608  74.5999 16.06060545120464
NSIGHT                  
1 42726U 98067MF  19182.74653555  .00015633  00000-0  12283-3 0  9999
2 42726  51.6351 241.9165 0003727 234.1289 125.9364 15.71713265119874
UCLSAT                  
1 42765U 17036A   19182.15402074  .00000660  00000-0  31197-4 0  9992
2 42765  97.3502 239.8980 0011506 177.2661 182.8641 15.22749185112361
LITUANICASAT-2          
1 42768U 17036D   19182.78960386  .00001347  00000-0  60432-4 0  9996
2 42768  97.3537 240.1282 0015520 167.6439 192.5181 15.22808108112300
AALTO-1                 
1 42775U 17036L   19182.81726427  .00000510  00000-0  25782-4 0  9994
2 42775  97.3486 239.2659 0014351 167.5825 192.5767 15.21342622112209
URSA MAIOR              
1 42776U 17036M   19182.77688993  .00000554  00000-0  27641-4 0  9999
2 42776  97.3496 239.3782 0014185 167.6394 192.5193 15.21475235112206
COMPASS 2               
1 42777U 17036N   19182.80702633  .00001113  00000-0  50334-4 0  9999
2 42777  97.3535 240.6068 0012913 167.5286 192.6273 15.22902122112266
DIAMOND RED             
1 42783U 17036U   19182.13800068  .00000579  00000-0  28192-4 0  9995
2 42783  97.3503 239.4744 0012154 178.9460 181.1804 15.22204475112148
PEGASUS                 
1 42784U 17036V   19182.70622539  .00000727  00000-0  34334-4 0  9994
2 42784  97.3507 240.2554 0012132 176.4601 183.6724 15.22498476112243
DIAMOND GREEN           
1 42785U 17036W   19182.79416021  .00000661  00000-0  31726-4 0  9990
2 42785  97.3504 240.1404 0012087 177.1794 182.9513 15.22207158112236
DIAMOND BLUE            
1 42786U 17036X   19181.93870492  .00000578  00000-0  28123-4 0  9996
2 42786  97.3505 239.3021 0011834 180.3312 179.7918 15.22202328112185
NUDTSAT                 
1 42787U 17036Y   19182.82730513  .00001088  00000-0  48530-4 0  9996
2 42787  97.3532 241.0706 0010001 176.6495 183.4804 15.23464815112145
SUCHAI                  
1 42788U 17036Z   19182.84121899  .00000901  00000-0  41304-4 0  9995
2 42788  97.3511 240.6947 0011740 174.8756 185.2603 15.22914882112359
SKCUBE                  
1 42789U 17036AA  19181.74076871  .00000721  00000-0  33761-4 0  9991
2 42789  97.3507 239.5582 0011464 178.7248 181.4020 15.22812079112108
VZLUSAT-1               
1 42790U 17036AB  19181.69754383  .00000938  00000-0  42218-4 0  9995
2 42790  97.3522 239.9676 0011094 177.4759 182.6536 15.23459034112123
ROBUSTA-1B              
1 42792U 17036AD  19181.73603542  .00000764  00000-0  35422-4 0  9998
2 42792  97.3509 239.7039 0011023 179.1017 181.0241 15.22978157112126
CICERO 6                
1 42793U 17036AE  19182.71904219  .00000582  00000-0  28011-4 0  9997
2 42793  97.3491 240.4430 0010334 176.8618 183.2685 15.22579653112333
D-SAT                   
1 42794U 17036AF  19182.15550221  .00000177  00000-0  20544-4 0  9999
2 42794  97.5383 226.3100 0128163 100.0506 261.5202 14.91099032110198
CORVUS BC2              
1 42846U 17042X   19182.69011273 -.00000056  00000-0 -21603-6 0  9999
2 42846  97.5648  76.1741 0010167  20.8088 339.3544 14.91976034106958
CORVUS BC1              
1 42847U 17042Y   19181.77067231  .00000130  00000-0  18122-4 0  9994
2 42847  97.5650  75.3997 0009864  23.5389 336.6280 14.92075903106810
MIRATA                  
1 43015U 17073C   19182.74258592  .00000565  00000-0  48867-4 0  9997
2 43015  97.7194 103.4493 0256705 115.0914 247.7174 14.78978722 87228
MAKERSAT 0              
1 43016U 17073D   19182.75882373  .00000367  00000-0  33534-4 0  9994
2 43016  97.7228 103.6649 0258885 115.4272 247.3975 14.78734223 87214
ASTERIA                 
1 43020U 98067NH  19182.58414432  .00016507  00000-0  13325-3 0  9997
2 43020  51.6422 253.7983 0001235 158.5398 201.5652 15.71016444 91888
DELLINGR (RBLE)         
1 43021U 98067NJ  19182.81661591  .00005718  00000-0  66875-4 0  9995
2 43021  51.6385 265.7460 0002130 145.4389 214.6744 15.63256497 91747
AEROCUBE 7B (OCSD B)    
1 43042U 17071F   19182.86180397  .00002244  00000-0  62801-4 0  9995
2 43042  51.6391 348.5307 0004537 194.3265 165.7593 15.41236812 88116
AEROCUBE 7C (OCSD C)    
1 43043U 17071G   19182.01886680  .00002042  00000-0  58030-4 0  9996
2 43043  51.6392 352.6657 0004750 195.8614 164.2223 15.41230808 87957
CHEFSAT                 
1 43044U 17071H   19181.85856174  .00003006  00000-0  74245-4 0  9990
2 43044  51.6396 347.9647 0004647 192.6013 167.4857 15.43880563 88007
ASGARDIA 1              
1 43049U 17071N   19181.90495955  .00001663  00000-0  48846-4 0  9992
2 43049  51.6401 352.6856 0002135 204.7877 155.3006 15.41354385 87936
ISARA                   
1 43050U 17071P   19181.94296229  .00003609  00000-0  88660-4 0  9991
2 43050  51.6386 348.4857 0002072 198.7973 161.2937 15.43392584 88006
PROPCUBE 2 (FAUNA)      
1 43052U 17071R   19181.97329121  .00001741  00000-0  50258-4 0  9991
2 43052  51.6400 351.6599 0002129 200.5708 159.5192 15.41634692 87958
CORVUS BC3              
1 43118U 18004H   19181.89326622  .00000433  00000-0  21551-4 0  9996
2 43118  97.4860 249.2105 0009777 200.6918 159.3924 15.22849057 81333
MICROMAS-2A             
1 43131U 18004W   19182.74288824  .00001166  00000-0  50891-4 0  9990
2 43131  97.4886 250.7737 0008854 197.8148 162.2780 15.24134583 81506
CICERO 7                
1 43143U 18004AJ  19182.83078728  .00001008  00000-0  44231-4 0  9999
2 43143  97.4872 251.0763 0006737 205.2809 154.8099 15.24267214 81534
GOMX-4B                 
1 43196U 18015E   19182.90197729  .00000269  00000-0  14044-4 0  9997
2 43196  97.3925 310.2573 0017667 261.7053  98.2181 15.23945231 78359
GOMX-4A                 
1 43197U 18015F   19182.90533084  .00000205  00000-0  11369-4 0  9993
2 43197  97.3933 310.2850 0017455 260.8628 222.2058 15.24040084 78366
1KUNS-PF                
1 43466U 98067NP  19182.61035918  .00015396  00000-0  14967-3 0  9991
2 43466  51.6375 268.8396 0000072 187.0056 173.0938 15.66506298 64942
UBAKUSAT                
1 43467U 98067NQ  19182.77601354  .00009209  00000-0  10513-3 0  9991
2 43467  51.6374 272.1970 0002234 114.7384 245.3843 15.63008082 64922
BATSU-CS1 (IRAZU)       
1 43468U 98067NR  19182.63947637  .00021674  00000-0  18485-3 0  9990
2 43468  51.6364 265.2577 0000526 318.3903  41.7054 15.69465350164989
CUBERRT                 
1 43546U 98067NU  19182.66819575  .00025819  00000-0  26063-3 0  9995
2 43546  51.6384 273.7260 0003947 182.7531 177.3443 15.65164949 55029
TEMPEST-D               
1 43547U 98067NV  19182.36376085  .00002054  00000-0  33456-4 0  9998
2 43547  51.6389 282.9425 0005678 167.6342 192.4791 15.58028618 54550
RAINCUBE                
1 43548U 98067NW  19182.71845259  .00009239  00000-0  11115-3 0  9991
2 43548  51.6372 277.0467 0005102 182.9652 177.1312 15.61627545 55110
HALOSAT                 
1 43549U 98067NX  19182.53077009  .00009742  00000-0  11706-3 0  9997
2 43549  51.6382 278.0549 0005105 184.1726 175.9226 15.61583166 54640
ENDUROSAT ONE           
1 43551U 98067NZ  19182.53958695  .00011185  00000-0  12579-3 0  9992
2 43551  51.6380 275.8672 0005248 195.2978 164.7859 15.63130307 55087
EQUISAT                 
1 43552U 98067PA  19181.69811429  .00007419  00000-0  89692-4 0  9998
2 43552  51.6393 281.5180 0005713 189.4998 170.5888 15.61853839 54899
AEROCUBE 12A            
1 43556U 18046C   19182.53018623  .00000401  00000-0  26804-4 0  9990
2 43556  51.6438 355.0688 0009025 114.4614 245.7308 15.28734069 53523
AEROCUBE 12B            
1 43557U 18046D   19181.95638446  .00001197  00000-0  55056-4 0  9991
2 43557  51.6437 357.9844 0009031 112.9746 247.2187 15.28603294 53385
UITMSAT-1               
1 43589U 98067PD  19181.70046940  .00008425  00000-0  10057-3 0  9994
2 43589  51.6368 282.2311 0005020 198.6794 161.4017 15.61974546 50621
